NORAD_CAT_ID,OBJECT_NAME,OBJECT_TYPE,EPOCH,MEAN_MOTION,ECCENTRICITY,INCLINATION,RA_OF_ASC_NODE,ARG_OF_PERICENTER,MEAN_ANOMALY,BSTAR,MEAN_MOTION_DOT,MEAN_MOTION_DDOT,TLE_LINE0,TLE_LINE1,TLE_LINE2,SEMIMAJOR_AXIS,PERIOD,APOGEE,PERIGEE,DECAYED
53969.0,STARLINK-4468,PAYLOAD,2024-05-27 00:42:44,15.08840705,0.0002494,53.2172,269.5467,199.5446,160.5451,7.8751e-05,9.65e-06,0.0,0 STARLINK-4468,1 53969U 22125F   24148.02967959  .00000965  00000-0  78751-4 0  9992,2 53969  53.2172 269.5467 0002494 199.5446 160.5451 15.08840705 91011,6917.878,95.438,541.469,538.018,0.0
53969.0,STARLINK-4468,PAYLOAD,2024-05-27 15:01:13,15.0884238,0.0001394,53.2186,266.8581,97.2534,262.8617,0.00037694,5.717e-05,0.0,0 STARLINK-4468,1 53969U 22125F   24148.62584853  .00005717  00000-0  37694-3 0  9996,2 53969  53.2186 266.8581 0001394  97.2534 262.8617 15.08842380 91036,6917.873,95.437,540.702,538.774,0.0
53969.0,STARLINK-4468,PAYLOAD,2024-05-28 00:33:31,15.08849368,0.0001487,53.2184,265.0738,102.248,257.8679,0.00021225,3.092e-05,0.0,0 STARLINK-4468,1 53969U 22125F   24149.02328276  .00003092  00000-0  21225-3 0  9993,2 53969  53.2184 265.0738 0001487 102.2480 257.8679 15.08849368 91090,6917.852,95.437,540.745,538.688,0.0
53969.0,STARLINK-4468,PAYLOAD,2024-05-28 14:51:59,15.08843509,0.0001282,53.2173,262.3969,81.6262,278.4876,0.00019443,2.808e-05,0.0,0 STARLINK-4468,1 53969U 22125F   24149.61944430  .00002808  00000-0  19443-3 0  9997,2 53969  53.2173 262.3969 0001282  81.6262 278.4876 15.08843509 91252,6917.87,95.437,540.622,538.848,0.0
53969.0,STARLINK-4468,PAYLOAD,2024-05-29 13:07:24,15.08837307,0.0001452,53.216,258.2362,47.3635,312.7479,-8.225e-05,-1.597e-05,0.0,0 STARLINK-4468,1 53969U 22125F   24150.54680967 -.00001597  00000-0 -82250-4 0  9996,2 53969  53.2160 258.2362 0001452  47.3635 312.7479 15.08837307 91396,6917.889,95.438,540.758,538.749,0.0
53969.0,STARLINK-4468,PAYLOAD,2024-05-29 14:42:47,15.08839953,0.0001362,53.2184,257.9379,64.0187,296.0945,4.1099e-05,3.66e-06,0.0,0 STARLINK-4468,1 53969U 22125F   24150.61305189  .00000366  00000-0  41099-4 0  9991,2 53969  53.2184 257.9379 0001362  64.0187 296.0945 15.08839953 91339,6917.881,95.438,540.688,538.803,0.0
53969.0,STARLINK-4468,PAYLOAD,2024-05-30 12:58:10,15.08850383,0.0001408,53.218,253.7744,63.5195,296.5942,0.00010121,1.324e-05,0.0,0 STARLINK-4468,1 53969U 22125F   24151.54040485  .00001324  00000-0  10121-3 0  9995,2 53969  53.2180 253.7744 0001408  63.5195 296.5942 15.08850383 91544,6917.849,95.437,540.688,538.74,0.0
53969.0,STARLINK-4468,PAYLOAD,2024-05-30 14:33:33,15.08851545,0.0001352,53.2183,253.4769,71.0451,289.0687,0.00016965,2.414e-05,0.0,0 STARLINK-4468,1 53969U 22125F   24151.60664261  .00002414  00000-0  16965-3 0  9999,2 53969  53.2183 253.4769 0001352  71.0451 289.0687 15.08851545 91485,6917.845,95.437,540.645,538.775,0.0
53969.0,STARLINK-4468,PAYLOAD,2024-05-31 12:48:58,15.08841838,0.0001311,53.2182,249.316,75.3402,284.7735,0.00015722,2.215e-05,0.0,0 STARLINK-4468,1 53969U 22125F   24152.53400864  .00002215  00000-0  15722-3 0  9998,2 53969  53.2182 249.3160 0001311  75.3402 284.7735 15.08841838 91694,6917.875,95.437,540.647,538.833,0.0
53969.0,STARLINK-4468,PAYLOAD,2024-06-01 12:39:45,15.08842854,0.0001345,53.2181,244.8541,91.2468,268.8678,-3.9156e-05,-9.11e-06,0.0,0 STARLINK-4468,1 53969U 22125F   24153.52761106 -.00000911  00000-0 -39156-4 0  9998,2 53969  53.2181 244.8541 0001345  91.2468 268.8678 15.08842854 91779,6917.872,95.437,540.667,538.806,0.0
53969.0,STARLINK-4468,PAYLOAD,2024-06-02 12:30:32,15.0884092,0.0001449,53.2186,240.3938,97.396,262.7197,4.1527e-05,3.73e-06,0.0,0 STARLINK-4468,1 53969U 22125F   24154.52121177  .00000373  00000-0  41527-4 0  9992,2 53969  53.2186 240.3938 0001449  97.3960 262.7197 15.08840920 91922,6917.878,95.437,540.745,538.74,0.0
53969.0,STARLINK-4468,PAYLOAD,2024-06-03 12:21:19,15.08841576,0.0001355,53.218,235.9353,93.0,267.1147,0.00012463,1.696e-05,0.0,0 STARLINK-4468,1 53969U 22125F   24155.51481311  .00001696  00000-0  12463-3 0  9996,2 53969  53.2180 235.9353 0001355  93.0000 267.1147 15.08841576 92148,6917.876,95.437,540.678,538.803,0.0
53969.0,STARLINK-4468,PAYLOAD,2024-06-03 21:53:38,15.08841092,0.00013,53.217,234.1507,90.5696,269.5445,0.00010772,1.427e-05,0.0,0 STARLINK-4468,1 53969U 22125F   24155.91225399  .00001427  00000-0  10772-3 0  9995,2 53969  53.2170 234.1507 0001300  90.5696 269.5445 15.08841092 92131,6917.877,95.437,540.641,538.843,0.0
53969.0,STARLINK-4468,PAYLOAD,2024-06-04 12:12:06,15.08853269,0.0001332,53.2175,231.4745,92.721,267.3935,0.00016437,2.33e-05,0.0,0 STARLINK-4468,1 53969U 22125F   24156.50840568  .00002330  00000-0  16437-3 0  9990,2 53969  53.2175 231.4745 0001332  92.7210 267.3935 15.08853269 92220,6917.84,95.437,540.626,538.783,0.0
53969.0,STARLINK-4468,PAYLOAD,2024-06-04 21:44:25,15.08842681,0.000114,53.2162,229.6882,87.2077,272.9045,0.00011706,1.576e-05,0.0,0 STARLINK-4468,1 53969U 22125F   24156.90585250  .00001576  00000-0  11706-3 0  9993,2 53969  53.2162 229.6882 0001140  87.2077 272.9045 15.08842681 92280,6917.872,95.437,540.526,538.949,0.0
53969.0,STARLINK-4468,PAYLOAD,2024-06-05 12:02:54,15.08834161,0.0001357,53.2178,227.0121,90.5468,269.5679,-5.8042e-06,-3.8e-06,0.0,0 STARLINK-4468,1 53969U 22125F   24157.50202385 -.00000380  00000-0 -58042-5 0  9995,2 53969  53.2178 227.0121 0001357  90.5468 269.5679 15.08834161 92443,6917.898,95.438,540.702,538.824,0.0
53969.0,STARLINK-4468,PAYLOAD,2024-06-05 21:35:13,15.08836848,0.0001489,53.2177,225.2274,86.2861,273.8301,-6.7309e-06,-3.95e-06,0.0,0 STARLINK-4468,1 53969U 22125F   24157.89945843 -.00000395  00000-0 -67309-5 0  9992,2 53969  53.2177 225.2274 0001489  86.2861 273.8301 15.08836848 92439,6917.89,95.438,540.785,538.725,0.0
53969.0,STARLINK-4468,PAYLOAD,2024-06-06 03:56:45,15.08837414,0.0001465,53.2177,224.0372,85.0383,275.0776,4.5857e-05,4.42e-06,0.0,0 STARLINK-4468,1 53969U 22125F   24158.16441902  .00000442  00000-0  45857-4 0  9994,2 53969  53.2177 224.0372 0001465  85.0383 275.0776 15.08837414 92547,6917.888,95.438,540.767,538.74,0.0
53969.0,STARLINK-4468,PAYLOAD,2024-06-06 11:53:41,15.08846147,0.0001342,53.2165,222.5524,91.516,268.5986,0.00023955,3.527e-05,0.0,0 STARLINK-4468,1 53969U 22125F   24158.49561573  .00003527  00000-0  23955-3 0  9998,2 53969  53.2165 222.5524 0001342  91.5160 268.5986 15.08846147 92526,6917.862,95.437,540.655,538.798,0.0
53969.0,STARLINK-4468,PAYLOAD,2024-06-07 10:09:05,15.08850898,0.0001428,53.2164,218.3894,92.9697,267.1458,0.00037249,5.647e-05,0.0,0 STARLINK-4468,1 53969U 22125F   24159.42297541  .00005647  00000-0  37249-3 0  9999,2 53969  53.2164 218.3894 0001428  92.9697 267.1458 15.08850898 92665,6917.847,95.437,540.7,538.724,0.0
53969.0,STARLINK-4468,PAYLOAD,2024-06-08 09:59:51,15.08854706,0.0001321,53.2154,213.9288,93.3514,266.7629,0.00026687,3.964e-05,0.0,0 STARLINK-4468,1 53969U 22125F   24160.41656817  .00003964  00000-0  26687-3 0  9999,2 53969  53.2154 213.9288 0001321  93.3514 266.7629 15.08854706 92888,6917.835,95.437,540.614,538.787,0.0
53969.0,STARLINK-4468,PAYLOAD,2024-06-08 21:07:33,15.08845963,0.0001392,53.2152,211.8459,88.7318,271.3833,6.6901e-05,7.77e-06,0.0,0 STARLINK-4468,1 53969U 22125F   24160.88024861  .00000777  00000-0  66901-4 0  9991,2 53969  53.2152 211.8459 0001392  88.7318 271.3833 15.08845963 92885,6917.862,95.437,540.69,538.764,0.0
53969.0,STARLINK-4468,PAYLOAD,2024-06-09 13:01:25,15.08836141,0.0001505,53.2164,208.8712,97.5123,262.604,-0.00011833,-2.171e-05,0.0,0 STARLINK-4468,1 53969U 22125F   24161.54265526 -.00002171  00000-0 -11833-3 0  9995,2 53969  53.2164 208.8712 0001505  97.5123 262.6040 15.08836141 93055,6917.892,95.438,540.798,538.716,0.0
53969.0,STARLINK-4468,PAYLOAD,2024-06-10 09:41:25,15.08845507,0.0001438,53.218,205.007,89.5707,270.545,3.2418e-05,2.28e-06,0.0,0 STARLINK-4468,1 53969U 22125F   24162.40377292  .00000228  00000-0  32418-4 0  9997,2 53969  53.2180 205.0070 0001438  89.5707 270.5450 15.08845507 93186,6917.864,95.437,540.723,538.734,0.0
53969.0,STARLINK-4468,PAYLOAD,2024-06-11 03:10:41,15.08836699,0.0001473,53.2164,201.7362,80.6569,279.4589,0.00019685,2.846e-05,0.0,0 STARLINK-4468,1 53969U 22125F   24163.13241945  .00002846  00000-0  19685-3 0  9991,2 53969  53.2164 201.7362 0001473  80.6569 279.4589 15.08836699 93297,6917.89,95.438,540.774,538.736,0.0
53969.0,STARLINK-4468,PAYLOAD,2024-06-11 09:32:13,15.08841911,0.0001433,53.2162,200.547,80.7457,279.3698,0.00024515,3.616e-05,0.0,0 STARLINK-4468,1 53969U 22125F   24163.39737751  .00003616  00000-0  24515-3 0  9998,2 53969  53.2162 200.5470 0001433  80.7457 279.3698 15.08841911 93265,6917.875,95.437,540.731,538.748,0.0
53969.0,STARLINK-4468,PAYLOAD,2024-06-12 06:12:14,15.08831983,0.0001367,53.2156,196.6831,86.1194,273.9955,-6.91e-05,-1.387e-05,0.0,0 STARLINK-4468,1 53969U 22125F   24164.25850381 -.00001387  00000-0 -69100-4 0  9994,2 53969  53.2156 196.6831 0001367  86.1194 273.9955 15.08831983 93396,6917.905,95.438,540.716,538.824,0.0
53969.0,STARLINK-4468,PAYLOAD,2024-06-12 09:23:01,15.08831379,0.000133,53.2166,196.088,86.2166,273.8978,-1.0968e-05,-4.62e-06,0.0,0 STARLINK-4468,1 53969U 22125F   24164.39098949 -.00000462  00000-0 -10968-4 0  9994,2 53969  53.2166 196.0880 0001330  86.2166 273.8978 15.08831379 93488,6917.907,95.438,540.692,538.852,0.0
53969.0,STARLINK-4468,PAYLOAD,2024-06-13 10:49:11,15.088417,0.0001372,53.2168,191.3297,86.1266,273.9883,5.8046e-05,6.36e-06,0.0,0 STARLINK-4468,1 53969U 22125F   24165.45082274  .00000636  00000-0  58046-4 0  9996,2 53969  53.2168 191.3297 0001372  86.1266 273.9883 15.08841700 93649,6917.875,95.437,540.689,538.791,0.0
53969.0,STARLINK-4468,PAYLOAD,2024-06-13 18:46:06,15.08839299,0.0001395,53.2173,189.8429,85.8292,274.286,8.0703e-05,9.97e-06,0.0,0 STARLINK-4468,1 53969U 22125F   24165.78202358  .00000997  00000-0  80703-4 0  9994,2 53969  53.2173 189.8429 0001395  85.8292 274.2860 15.08839299 93621,6917.883,95.438,540.713,538.782,0.0
